XRISM                   
1 57800U 23137A   26080.06454537  .00005377  00000+0  30305-3 0  9991
2 57800  31.0013 210.0811 0007952 153.6143 206.4902 15.11617978139517
ACS3                    
1 59588U 24077B   26080.08845055  .00021926  00000+0  17390-1 0  9996
2 59588  97.2012  18.6389 0069314  50.0834 310.6394 13.90104303 95785
SZ-21 MODULE            
1 66515U 25246C   26079.19410922  .00026007  00000+0  21818-3 0  9991
2 66515  41.4734 138.6579 0000376 257.1443 102.9357 15.69318212 19723
