CCSDS_OMM_VERS = 2.0
CREATION_DATE  = 
ORIGINATOR     = 

OBJECT_NAME    = XRISM
OBJECT_ID      = 2023-137A
CENTER_NAME    = EARTH
REF_FRAME      = TEME
TIME_SYSTEM    = UTC
MEAN_ELEMENT_THEORY = SGP/SGP4

EPOCH          = 2026-03-21T01:32:56.719968
MEAN_MOTION    = 15.11617978
ECCENTRICITY   = .00079528
INCLINATION    = 31.0013
RA_OF_ASC_NODE = 210.0811
ARG_OF_PERICENTER = 153.6143
MEAN_ANOMALY   = 206.4902

EPHEMERIS_TYPE = 0
CLASSIFICATION_TYPE = U
NORAD_CAT_ID   = 57800
ELEMENT_SET_NO = 999
REV_AT_EPOCH   = 13951
BSTAR          = .30304703E-3
MEAN_MOTION_DOT = .5377E-4
MEAN_MOTION_DDOT = 0

CCSDS_OMM_VERS = 2.0
CREATION_DATE  = 
ORIGINATOR     = 

OBJECT_NAME    = ACS3
OBJECT_ID      = 2024-077B
CENTER_NAME    = EARTH
REF_FRAME      = TEME
TIME_SYSTEM    = UTC
MEAN_ELEMENT_THEORY = SGP/SGP4

EPOCH          = 2026-03-21T02:07:22.127520
MEAN_MOTION    = 13.90104303
ECCENTRICITY   = .00693148
INCLINATION    = 97.2012
RA_OF_ASC_NODE = 18.6389
ARG_OF_PERICENTER = 50.0834
MEAN_ANOMALY   = 310.6394

EPHEMERIS_TYPE = 0
CLASSIFICATION_TYPE = U
NORAD_CAT_ID   = 59588
ELEMENT_SET_NO = 999
REV_AT_EPOCH   = 9578
BSTAR          = .17389939E-1
MEAN_MOTION_DOT = .21926E-3
MEAN_MOTION_DDOT = 0

CCSDS_OMM_VERS = 2.0
CREATION_DATE  = 
ORIGINATOR     = 

OBJECT_NAME    = SZ-21 MODULE
OBJECT_ID      = 2025-246C
CENTER_NAME    = EARTH
REF_FRAME      = TEME
TIME_SYSTEM    = UTC
MEAN_ELEMENT_THEORY = SGP/SGP4

EPOCH          = 2026-03-20T04:39:31.036608
MEAN_MOTION    = 15.69318212
ECCENTRICITY   = .00003768
INCLINATION    = 41.4734
RA_OF_ASC_NODE = 138.6579
ARG_OF_PERICENTER = 257.1443
MEAN_ANOMALY   = 102.9357

EPHEMERIS_TYPE = 0
CLASSIFICATION_TYPE = U
NORAD_CAT_ID   = 66515
ELEMENT_SET_NO = 999
REV_AT_EPOCH   = 1972
BSTAR          = .21817617E-3
MEAN_MOTION_DOT = .26007E-3
MEAN_MOTION_DDOT = 0

